OBJECT_NAME,OBJECT_ID,EPOCH,MEAN_MOTION,ECCENTRICITY,INCLINATION,RA_OF_ASC_NODE,ARG_OF_PERICENTER,MEAN_ANOMALY,EPHEMERIS_TYPE,CLASSIFICATION_TYPE,NORAD_CAT_ID,ELEMENT_SET_NO,REV_AT_EPOCH,BSTAR,MEAN_MOTION_DOT,MEAN_MOTION_DDOT
SJ-7,2005-024A,2026-06-13T19:15:24.137280,15.21496699,.001669,97.7284,194.8148,49.1126,311.1551,0,U,28737,999,14751,.37121E-3,.8311E-4,0
CUBESAT XI-V,2005-043F,2026-06-13T09:27:00.601344,14.72622172,.0013416,98.2979,319.9359,213.2696,146.7669,0,U,28895,999,10119,.21486221E-3,.1317E-4,0
CLOUDSAT,2006-016A,2026-06-13T20:25:11.500320,14.86388025,.0004979,98.3928,201.9565,358.4112,1.7086,0,U,29107,999,7401,.11737E-3,.975E-5,0
CALIPSO,2006-016B,2026-06-13T19:46:44.398272,14.69344346,.0000972,98.4470,180.3732,81.7678,278.3637,0,U,29108,999,7256,.17693E-3,.993E-5,0
HINODE (SOLAR-B),2006-041A,2026-06-13T18:41:26.216160,14.68618916,.0016123,98.0549,180.9816,301.5450,58.4180,0,U,29479,999,5437,.12007E-3,.65E-5,0
METOP-A,2006-044A,2026-06-13T21:09:53.936928,14.75966677,.0175144,98.3332,271.4792,80.0604,34.3220,0,U,29499,999,2496,.25088E-3,.2154E-4,0
SHIJIAN-6 02B (SJ-6 02B),2006-046B,2026-06-13T21:08:10.967136,15.01368697,.0015193,97.7163,193.9595,70.0494,290.2365,0,U,29506,999,7024,.91044E-4,.1115E-4,0
DMSP 5D-3 F17 (USA 191),2006-050A,2026-06-13T20:18:37.259712,14.14992648,.0011242,98.7378,171.4847,68.0770,292.1598,0,U,29522,999,1195,.39678E-4,.34E-6,0
LAPAN-TUBSAT,2007-001A,2026-06-13T21:17:55.256640,14.85947798,.0011638,98.1338,164.0365,190.2058,169.8922,0,U,29709,999,5066,.10104E-3,.825E-5,0
HAIYANG-1B,2007-010A,2026-06-13T20:36:19.274688,14.31026137,.0012807,98.3494,146.8328,206.6224,153.4303,0,U,31113,999,16,.45107E-4,.77E-6,0
BEIDOU-2 M1,2007-011A,2026-06-13T10:23:06.271008,1.77349387,.00017741,50.9318,219.4033,331.1151,28.9724,0,U,31115,999,7608,0,.56E-6,0
CAPE-1,2007-012P,2026-06-13T09:55:22.390176,14.64864734,.0084885,98.4460,138.8070,83.0658,278.0191,0,U,31130,999,1780,.25004222E-3,.1353E-4,0
CBERS 2B,2007-042A,2026-06-13T20:10:02.822880,14.41474545,.0030791,98.3924,109.5480,347.2533,71.3950,0,U,32062,999,98420,.79978E-4,.218E-5,0
COSMO-SKYMED 2,2007-059A,2026-06-13T20:28:21.626976,14.82152572,.0001385,97.8885,348.4994,86.3437,273.7934,0,U,32376,999,151,.52973E-4,.369E-5,0
CARTOSAT-2A,2008-021A,2026-06-13T20:48:51.867072,14.79232990,.0013024,97.7641,213.6890,118.4330,241.8196,0,U,32783,999,97831,.52102E-4,.337E-5,0
CUTE-1.7+APD II (CO-65),2008-021C,2026-06-13T20:49:48.455616,15.09425459,.0010188,97.8270,146.2174,49.5442,310.6673,0,U,32785,999,98469,.31435E-3,.4966E-4,0
SEEDS II (CO-66),2008-021J,2026-06-13T13:04:32.511072,15.32635476,.0001606,97.7510,162.2685,15.7842,344.3449,0,U,32791,999,98673,.59804E-3,.1879E-3,0
YUBILEINY (RS30),2008-025A,2026-06-13T21:06:15.058080,12.43179026,.0018987,82.5045,357.4989,321.3501,38.6219,0,U,32953,999,81928,-.17509E-3,-.15E-6,0
FENGYUN 3A,2008-026A,2026-06-13T19:19:19.306848,14.19570497,.000946,98.6883,105.7015,132.4960,227.7017,0,U,32958,999,93492,.46922E-4,.56E-6,0
HUANJING 1A (HJ-1A),2008-041A,2026-06-13T20:41:48.139008,14.83980991,.0019726,97.6675,150.8289,145.0550,215.1964,0,U,33320,999,95791,.19218E-3,.1553E-4,0
HUANJING 1B (HJ-1B),2008-041B,2026-06-13T21:32:14.199648,14.83310150,.003572,97.6513,154.0442,191.8582,168.1795,0,U,33321,999,95792,.36744E-4,.252E-5,0
SHIJIAN-6 03A (SJ-6 03A),2008-053A,2026-06-13T21:11:31.288992,15.17136976,.0012049,97.8417,198.0882,31.6750,328.5205,0,U,33408,999,96246,.24272E-3,.475E-4,0
SHIJIAN-6 03B (SJ-6 03B),2008-053B,2026-06-13T20:10:17.599008,15.04301181,.0021155,97.8582,184.6765,55.7705,304.5521,0,U,33409,999,96224,.90039E-4,.1194E-4,0
CHUANGXIN 1-02 (CX-1-02),2008-056B,2026-06-13T20:51:52.615872,14.30151893,.001481,98.6138,191.1690,145.7806,214.4334,0,U,33434,999,91814,-.19964E-4,-.96E-6,0
STARS (KUKAI),2009-002G,2026-06-13T19:22:25.134240,14.95731788,.0008612,98.1551,111.9779,168.4905,191.6513,0,U,33498,999,93797,.41231E-3,.4534E-4,0
KKS-1 (KISEKI),2009-002H,2026-06-13T19:34:46.421184,14.83116516,.0006703,98.1192,87.2046,308.9176,51.1439,0,U,33499,999,93569,.16425E-3,.1283E-4,0
NOAA 19,2009-005A,2026-06-13T20:45:12.692736,14.13473837,.0014432,98.9520,235.7371,43.4385,316.7921,0,U,33591,999,89401,.39101E-4,.29E-6,0
UK-DMC 2,2009-041C,2026-06-13T20:04:14.996352,14.76023517,.000123,97.8827,299.8848,76.0852,284.0495,0,U,35683,999,90607,.16442E-3,.1083E-4,0
METEOR-M 1,2009-049A,2026-06-13T20:11:34.514016,14.23156193,.0001793,98.7384,127.3390,349.4894,10.6246,0,U,35865,999,86877,.45987E-4,.6E-6,0
OCEANSAT-2,2009-051A,2026-06-13T20:09:11.331936,13.99664800,.0014955,98.2324,152.0250,246.1209,113.8391,0,U,35931,999,87886,-.13898E-4,-.58E-6,0
SWISSCUBE,2009-051B,2026-06-13T16:18:17.233632,14.62475781,.0005756,98.4039,72.5065,215.4372,144.6447,0,U,35932,999,88864,.1947E-3,.937E-5,0
BEESAT-1,2009-051C,2026-06-13T16:29:14.836128,14.61715545,.0004055,98.3968,72.1570,230.6846,129.3995,0,U,35933,999,88867,.167E-3,.783E-5,0
ITUPSAT1,2009-051E,2026-06-13T16:11:43.005120,14.60435999,.0006157,98.4053,71.3404,247.1048,112.9502,0,U,35935,999,88822,.15577E-3,.706E-5,0
DMSP 5D-3 F18 (USA 210),2009-057A,2026-06-13T19:37:05.221920,14.14895069,.0009852,98.9037,145.5939,260.2139,99.7922,0,U,35951,999,85911,.13705E-3,.22E-5,0
PROBA-2,2009-059B,2026-06-13T10:59:15.343872,14.54860953,.00120516,98.2449,347.8623,294.8827,65.1117,0,U,36037,999,88098,.51213492E-4,.175E-5,0
YAOGAN-7,2009-069A,2026-06-13T16:53:29.393088,14.78006843,.0025743,98.0076,50.5922,52.4849,307.8696,0,U,36110,999,88911,.74699E-4,.489E-5,0
XIWANG-1 (HOPE-1),2009-072B,2026-06-13T19:46:26.700096,13.16440237,.0006838,100.4020,118.7094,239.8393,120.2043,0,U,36122,999,79256,.33206E-3,.82E-6,0
RADUGA-1M 2,2010-002A,2026-06-13T18:07:04.105632,0.98968267,.0005726,3.6119,78.8993,264.8194,154.9979,0,U,36358,999,4999,0,-.223E-5,0
COSMOS 2463,2010-017A,2026-06-13T18:34:08.967360,13.71665433,.0037193,82.9606,252.2135,138.0428,342.4704,0,U,36519,999,80746,.25756E-4,.39E-6,0
CARTOSAT-2B,2010-035A,2026-06-13T19:42:01.497888,14.78655543,.0010861,97.9959,215.3918,195.0632,165.0257,0,U,36795,999,85935,.37864E-4,.225E-5,0
AISSAT 1,2010-035C,2026-06-13T16:02:31.348032,14.97349119,.0010732,98.0931,63.7883,73.2921,286.9477,0,U,36797,999,86369,.26834E-3,.3056E-4,0
TISAT 1,2010-035E,2026-06-13T18:50:45.378816,15.31591266,.0000925,98.0709,111.0328,172.0617,188.0637,0,U,36799,999,86718,.70389E-3,.21423E-3,0
YAOGAN-10,2010-038A,2026-06-13T20:32:22.105824,14.85341189,.000172,97.8980,188.2865,87.7267,14.3318,0,U,36834,999,85671,.2224E-3,.1859E-4,0
SHIJIAN-6 04B (SJ-6 04B),2010-051B,2026-06-13T21:16:11.744256,14.99306530,.0008409,97.8681,170.2622,325.1983,34.8689,0,U,37180,999,85518,.96049E-4,.1112E-4,0
FENGYUN 3B,2010-059A,2026-06-13T20:39:25.354368,14.14841314,.0021738,98.9626,210.8609,193.6696,340.1942,0,U,37214,999,80695,.18434E-3,.311E-5,0
COSMO-SKYMED 4,2010-060A,2026-06-13T19:09:22.841856,14.82151290,.0001408,97.8884,348.4475,83.1728,276.9645,0,U,37216,999,84406,.96324E-4,.715E-5,0
O/OREOS (USA 219),2010-062C,2026-06-13T20:20:37.669344,14.93732001,.0012456,71.9713,87.9037,70.3750,289.8764,0,U,37224,999,11614,.22655E-3,.2341E-4,0
ELEKTRO-L 1 (GOMS 2),2011-001A,2026-06-13T12:08:36.087936,1.00155633,.0004026,9.6773,54.5423,31.0491,248.4021,0,U,37344,999,5644,0,-.45E-6,0
RESOURCESAT-2,2011-015A,2026-06-13T18:44:40.517664,14.21605748,.0010148,98.7644,232.2463,266.4742,93.5275,0,U,37387,999,78569,.54369E-4,.75E-6,0
YOUTHSAT,2011-015B,2026-06-13T20:34:09.412896,14.25629095,.0014435,98.3681,139.0613,356.9663,60.9446,0,U,37388,999,78716,.86128E-4,.163E-5,0
APRIZESAT 6,2011-044F,2026-06-13T18:14:36.402720,14.76911331,.0044477,98.2368,75.1897,96.6682,328.9113,0,U,37793,999,79664,.10719E-3,.71E-5,0
JUGNU,2011-058B,2026-06-13T18:16:22.673856,14.13775870,.00186,19.9621,329.2415,38.5860,351.9026,0,U,37839,999,75854,.71673E-4,.404E-5,0
SRMSAT,2011-058D,2026-06-13T11:49:26.315616,14.11574841,.00118721,19.9718,81.8294,162.9750,353.0513,0,U,37841,999,75729,.51405851E-4,.36E-5,0
SUOMI NPP,2011-061A,2026-06-13T19:35:23.085024,14.19516725,.0001723,98.7954,105.7153,14.7283,345.3942,0,U,37849,999,75796,.42609E-4,.45E-6,0
YAOGAN-12,2011-066B,2026-06-13T20:34:26.497632,15.26563873,.0008453,97.1147,203.5818,230.0752,129.9745,0,U,37875,999,81153,.23133E-3,.5986E-4,0
BEIDOU-2 M4,2012-018B,2026-06-13T08:41:38.889888,1.86229521,.0011287,55.6617,304.2191,276.0779,83.7740,0,U,38251,999,9587,0,-.7E-6,0
ARIRANG-3 (KOMPSAT-3),2012-025B,2026-06-13T21:14:15.364320,14.62203604,.0006561,98.1175,122.4018,117.7478,242.4389,0,U,38338,999,75086,.8777E-4,.396E-5,0
HORYU-2,2012-025D,2026-06-13T14:46:13.882080,14.91048632,.0008021,98.2170,297.4058,185.5912,174.5217,0,U,38340,999,74819,.30236E-3,.2933E-4,0
CSSWE,2012-048D,2026-06-13T06:39:25.161120,15.44284631,.0047712,64.6620,106.7342,174.9970,185.1654,0,U,38761,999,11579,.53789E-3,.25808E-3,0
CP5,2012-048F,2026-06-13T17:29:40.809120,15.27686802,.0079042,64.6427,164.0162,177.3813,182.7747,0,U,38763,999,11623,.35182E-3,.10268E-3,0
METOP-B,2012-049A,2026-06-13T21:08:58.443072,14.21431861,.0002437,98.6505,216.4463,27.7599,332.3708,0,U,38771,999,71279,.65635E-4,.1E-5,0
SJ-9A,2012-056A,2026-06-13T20:43:53.777568,14.85472984,.0023947,97.6707,136.9355,268.3641,91.4831,0,U,38860,999,69909,.1061E-3,.867E-5,0
COSMOS 2484 (RODNIK-S 6),2013-001C,2026-06-13T20:18:00.812736,12.42938457,.0027004,82.5023,223.9696,43.7473,316.5740,0,U,39059,999,60814,-.7062E-3,-.88E-6,0
SARAL,2013-009A,2026-06-13T19:53:19.698144,14.32855206,.0000871,98.5556,351.4385,329.4344,30.6789,0,U,39086,999,69512,.50472E-4,.94E-6,0
AAUSAT 3,2013-009B,2026-06-13T18:37:04.266048,14.39935788,.0010566,98.3700,348.6474,217.3374,142.7081,0,U,39087,999,69668,.20415E-3,.6E-5,0
STRAND-1,2013-009E,2026-06-13T18:48:38.805408,14.37161544,.0007578,98.3921,345.1020,236.8114,123.2347,0,U,39090,999,69657,.1024E-3,.262E-5,0
BRITE-AUSTRIA,2013-009F,2026-06-13T10:43:34.682016,14.36540717,.00090312,98.3993,343.9753,249.1124,110.9097,0,U,39091,999,69651,.68447046E-4,.158E-5,0
